{
  "links" : {
    "next" : "https://api.nasa.gov/neo/rest/v1/feed?start_date=1997-11-16&end_date=1997-11-16&detailed=true&api_key=t0TVs3DtDT2H8Oy2Zy8m2eVrNsAVKAexjcZXUckd",
    "prev" : "https://api.nasa.gov/neo/rest/v1/feed?start_date=1997-11-14&end_date=1997-11-14&detailed=true&api_key=t0TVs3DtDT2H8Oy2Zy8m2eVrNsAVKAexjcZXUckd",
    "self" : "https://api.nasa.gov/neo/rest/v1/feed?start_date=1997-11-15&end_date=1997-11-15&detailed=true&api_key=t0TVs3DtDT2H8Oy2Zy8m2eVrNsAVKAexjcZXUckd"
  },
  "element_count" : 6,
  "near_earth_objects" : {
    "1997-11-15" : [ {
      "links" : {
        "self" : "https://api.nasa.gov/neo/rest/v1/neo/3758834?api_key=t0TVs3DtDT2H8Oy2Zy8m2eVrNsAVKAexjcZXUckd"
      },
      "neo_reference_id" : "3758834",
      "name" : "(2016 QZ83)",
      "nasa_jpl_url" : "http://ssd.jpl.nasa.gov/sbdb.cgi?sstr=3758834",
      "absolute_magnitude_h" : 20.8,
      "estimated_diameter" : {
        "kilometers" : {
          "estimated_diameter_min" : 0.1838886721,
          "estimated_diameter_max" : 0.411187571
        },
        "meters" : {
          "estimated_diameter_min" : 183.8886720703,
          "estimated_diameter_max" : 411.1875710413
        },
        "miles" : {
          "estimated_diameter_min" : 0.1142630881,
          "estimated_diameter_max" : 0.2555000322
        },
        "feet" : {
          "estimated_diameter_min" : 603.309310875,
          "estimated_diameter_max" : 1349.040630575
        }
      },
      "is_potentially_hazardous_asteroid" : false,
      "close_approach_data" : [ {
        "close_approach_date" : "1997-11-15",
        "epoch_date_close_approach" : 879580800000,
        "relative_velocity" : {
          "kilometers_per_second" : "2.0822065298",
          "kilometers_per_hour" : "7495.9435074472",
          "miles_per_hour" : "4657.6877866135"
        },
        "miss_distance" : {
          "astronomical" : "0.2626351715",
          "lunar" : "102.1650848389",
          "kilometers" : "39289664",
          "miles" : "24413464"
        },
        "orbiting_body" : "Earth"
      } ],
      "orbital_data" : {
        "orbit_id" : "10",
        "orbit_determination_date" : "2017-04-06 08:24:17",
        "orbit_uncertainty" : "2",
        "minimum_orbit_intersection" : ".258474",
        "jupiter_tisserand_invariant" : "3.801",
        "epoch_osculation" : "2458000.5",
        "eccentricity" : ".3661000063123206",
        "semi_major_axis" : "1.952931860068172",
        "inclination" : "4.627696294255238",
        "ascending_node_longitude" : "282.6386814437361",
        "orbital_period" : "996.8482773086514",
        "perihelion_distance" : "1.237963493769683",
        "perihelion_argument" : "134.1040740050058",
        "aphelion_distance" : "2.667900226366662",
        "perihelion_time" : "2457751.585765408653",
        "mean_anomaly" : "89.89244049738123",
        "mean_motion" : ".3611382074832379",
        "equinox" : "J2000"
      }
    }, {
      "links" : {
        "self" : "https://api.nasa.gov/neo/rest/v1/neo/3167348?api_key=t0TVs3DtDT2H8Oy2Zy8m2eVrNsAVKAexjcZXUckd"
      },
      "neo_reference_id" : "3167348",
      "name" : "(2003 WU21)",
      "nasa_jpl_url" : "http://ssd.jpl.nasa.gov/sbdb.cgi?sstr=3167348",
      "absolute_magnitude_h" : 21.9,
      "estimated_diameter" : {
        "kilometers" : {
          "estimated_diameter_min" : 0.1108038821,
          "estimated_diameter_max" : 0.2477650126
        },
        "meters" : {
          "estimated_diameter_min" : 110.8038821264,
          "estimated_diameter_max" : 247.7650126055
        },
        "miles" : {
          "estimated_diameter_min" : 0.068850319,
          "estimated_diameter_max" : 0.1539539936
        },
        "feet" : {
          "estimated_diameter_min" : 363.5298086356,
          "estimated_diameter_max" : 812.8773639568
        }
      },
      "is_potentially_hazardous_asteroid" : false,
      "close_approach_data" : [ {
        "close_approach_date" : "1997-11-15",
        "epoch_date_close_approach" : 879580800000,
        "relative_velocity" : {
          "kilometers_per_second" : "30.1607598492",
          "kilometers_per_hour" : "108578.7354572993",
          "miles_per_hour" : "67466.6037067869"
        },
        "miss_distance" : {
          "astronomical" : "0.3554767264",
          "lunar" : "138.280456543",
          "kilometers" : "53178564",
          "miles" : "33043628"
        },
        "orbiting_body" : "Earth"
      } ],
      "orbital_data" : {
        "orbit_id" : "20",
        "orbit_determination_date" : "2017-04-06 09:13:32",
        "orbit_uncertainty" : "0",
        "minimum_orbit_intersection" : ".070206",
        "jupiter_tisserand_invariant" : "6.339",
        "epoch_osculation" : "2458000.5",
        "eccentricity" : ".545002705101218",
        "semi_major_axis" : ".9091721255511108",
        "inclination" : "28.5952346722244",
        "ascending_node_longitude" : "57.54541171739623",
        "orbital_period" : "316.641325664771",
        "perihelion_distance" : ".4136708577231313",
        "perihelion_argument" : "140.672118189214",
        "aphelion_distance" : "1.40467339337909",
        "perihelion_time" : "2458102.058006068313",
        "mean_anomaly" : "244.5353426062281",
        "mean_motion" : "1.136933087442707",
        "equinox" : "J2000"
      }
    }, {
      "links" : {
        "self" : "https://api.nasa.gov/neo/rest/v1/neo/3776113?api_key=t0TVs3DtDT2H8Oy2Zy8m2eVrNsAVKAexjcZXUckd"
      },
      "neo_reference_id" : "3776113",
      "name" : "(2017 ME7)",
      "nasa_jpl_url" : "http://ssd.jpl.nasa.gov/sbdb.cgi?sstr=3776113",
      "absolute_magnitude_h" : 20.397,
      "estimated_diameter" : {
        "kilometers" : {
          "estimated_diameter_min" : 0.2213884586,
          "estimated_diameter_max" : 0.4950396429
        },
        "meters" : {
          "estimated_diameter_min" : 221.3884586349,
          "estimated_diameter_max" : 495.0396429415
        },
        "miles" : {
          "estimated_diameter_min" : 0.1375643679,
          "estimated_diameter_max" : 0.307603278
        },
        "feet" : {
          "estimated_diameter_min" : 726.3401106277,
          "estimated_diameter_max" : 1624.1458621483
        }
      },
      "is_potentially_hazardous_asteroid" : false,
      "close_approach_data" : [ {
        "close_approach_date" : "1997-11-15",
        "epoch_date_close_approach" : 879580800000,
        "relative_velocity" : {
          "kilometers_per_second" : "11.0750365572",
          "kilometers_per_hour" : "39870.1316058167",
          "miles_per_hour" : "24773.7492747365"
        },
        "miss_distance" : {
          "astronomical" : "0.2274695195",
          "lunar" : "88.4856414795",
          "kilometers" : "34028956",
          "miles" : "21144612"
        },
        "orbiting_body" : "Earth"
      } ],
      "orbital_data" : {
        "orbit_id" : "4",
        "orbit_determination_date" : "2017-08-11 06:16:45",
        "orbit_uncertainty" : "5",
        "minimum_orbit_intersection" : ".225141",
        "jupiter_tisserand_invariant" : "4.053",
        "epoch_osculation" : "2458000.5",
        "eccentricity" : ".3774204268304362",
        "semi_major_axis" : "1.707360395533344",
        "inclination" : "18.62425832747502",
        "ascending_node_longitude" : "257.8223309547911",
        "orbital_period" : "814.8660642280329",
        "perihelion_distance" : "1.062967706297767",
        "perihelion_argument" : "108.8694909148629",
        "aphelion_distance" : "2.351753084768921",
        "perihelion_time" : "2458055.489500622413",
        "mean_anomaly" : "335.7061668253141",
        "mean_motion" : ".4417903945245868",
        "equinox" : "J2000"
      }
    } ]
  }
}